start=new Date('2022-06-29T00:00:00.000Z').valueOf();
sats=[{"REV_AT_EPOCH":"16998","APOAPSIS":"459.270","PERIOD":"93.715","COUNTRY_CODE":"US","DECAY_DATE":null,"NORAD_CAT_ID":"44238","BSTAR":"0.00115990000000","MEAN_ANOMALY":"263.5184","RCS_SIZE":"LARGE","OBJECT_NAME":"STARLINK-24","GP_ID":"207057959","SEMIMAJOR_AXIS":"6834.388","TLE_LINE2":"2 44238  53.0071  56.6628 0004415  96.6321 263.5184 15.36573506169986","LAUNCH_DATE":"2019-05-24","TLE_LINE1":"1 44238U 19029D   22179.86133767  .00041874  00000-0  11599-2 0  9995","OBJECT_TYPE":"PAYLOAD","INCLINATION":"53.0071","ECCENTRICITY":"0.00044150","EPOCH":"2022-06-28T20:40:19.574688","PERIAPSIS":"453.235","REF_FRAME":"TEME","MEAN_MOTION":"15.36573506","MEAN_ELEMENT_THEORY":"SGP4","EPHEMERIS_TYPE":"0","ELEMENT_SET_NO":"999","TIME_SYSTEM":"UTC","MEAN_MOTION_DOT":"0.00041874","SITE":"AFETR","RA_OF_ASC_NODE":"56.6628","ARG_OF_PERICENTER":"96.6321","CLASSIFICATION_TYPE":"U","CENTER_NAME":"EARTH","MEAN_MOTION_DDOT":"0.0000000000000","FILE":"3504942","OBJECT_ID":"2019-029D"},{"MEAN_MOTION_DOT":"0.00142993","RA_OF_ASC_NODE":"6.6912","SITE":"AFETR","TIME_SYSTEM":"UTC","ELEMENT_SET_NO":"999","FILE":"3504942","OBJECT_ID":"2019-029Q","CLASSIFICATION_TYPE":"U","CENTER_NAME":"EARTH","MEAN_MOTION_DDOT":"0.0000000000000","ARG_OF_PERICENTER":"229.4374","EPOCH":"2022-06-28T19:17:04.396704","ECCENTRICITY":"0.00101370","EPHEMERIS_TYPE":"0","MEAN_ELEMENT_THEORY":"SGP4","MEAN_MOTION":"15.64318360","REF_FRAME":"TEME","PERIAPSIS":"368.356","LAUNCH_DATE":"2019-05-24","TLE_LINE1":"1 44249U 19029Q   22179.80352311  .00142993  00000-0  14451-2 0  9993","OBJECT_TYPE":"PAYLOAD","GP_ID":"207056215","SEMIMAJOR_AXIS":"6753.337","TLE_LINE2":"2 44249  52.9651   6.6912 0010137 229.4374 130.5757 15.64318360171363","RCS_SIZE":"LARGE","OBJECT_NAME":"STARLINK-61","MEAN_ANOMALY":"130.5757","INCLINATION":"52.9651","REV_AT_EPOCH":"17136","APOAPSIS":"382.048","NORAD_CAT_ID":"44249","BSTAR":"0.00144510000000","COUNTRY_CODE":"US","DECAY_DATE":null,"PERIOD":"92.053"},{"BSTAR":"0.00107260000000","NORAD_CAT_ID":"44252","DECAY_DATE":null,"COUNTRY_CODE":"US","PERIOD":"93.570","APOAPSIS":"452.319","REV_AT_EPOCH":"17068","INCLINATION":"52.9971","TLE_LINE1":"1 44252U 19029T   22179.84677174  .00041814  00000-0  10726-2 0  9999","OBJECT_TYPE":"PAYLOAD","LAUNCH_DATE":"2019-05-24","SEMIMAJOR_AXIS":"6827.360","TLE_LINE2":"2 44252  52.9971  52.2295 0004532  81.4955 278.6561 15.38946722170687","GP_ID":"207056963","OBJECT_NAME":"STARLINK-71","RCS_SIZE":"LARGE","MEAN_ANOMALY":"278.6561","EPHEMERIS_TYPE":"0","MEAN_ELEMENT_THEORY":"SGP4","MEAN_MOTION":"15.38946722","PERIAPSIS":"446.131","REF_FRAME":"TEME","EPOCH":"2022-06-28T20:19:21.078336","ECCENTRICITY":"0.00045320","OBJECT_ID":"2019-029T","FILE":"3504942","MEAN_MOTION_DDOT":"0.0000000000000","CENTER_NAME":"EARTH","CLASSIFICATION_TYPE":"U","ARG_OF_PERICENTER":"81.4955","SITE":"AFETR","RA_OF_ASC_NODE":"52.2295","MEAN_MOTION_DOT":"0.00041814","TIME_SYSTEM":"UTC","ELEMENT_SET_NO":"999"},{"EPOCH":"2022-06-28T13:35:50.202528","ECCENTRICITY":"0.00017700","EPHEMERIS_TYPE":"0","MEAN_ELEMENT_THEORY":"SGP4","MEAN_MOTION":"15.06398299","REF_FRAME":"TEME","PERIAPSIS":"545.993","MEAN_MOTION_DOT":"-0.00000385","RA_OF_ASC_NODE":"127.5448","SITE":"AFETR","TIME_SYSTEM":"UTC","ELEMENT_SET_NO":"999","FILE":"3504942","OBJECT_ID":"2019-074A","CLASSIFICATION_TYPE":"U","CENTER_NAME":"EARTH","MEAN_MOTION_DDOT":"0.0000000000000","ARG_OF_PERICENTER":"67.0688","REV_AT_EPOCH":"14525","APOAPSIS":"548.445","NORAD_CAT_ID":"44713","BSTAR":"-0.00000691190000","COUNTRY_CODE":"US","DECAY_DATE":null,"PERIOD":"95.592","LAUNCH_DATE":"2019-11-11","TLE_LINE1":"1 44713U 19074A   22179.56655327 -.00000385  00000-0 -69119-5 0  9999","OBJECT_TYPE":"PAYLOAD","GP_ID":"207056253","SEMIMAJOR_AXIS":"6925.354","TLE_LINE2":"2 44713  53.0557 127.5448 0001770  67.0688 293.0487 15.06398299145259","RCS_SIZE":"LARGE","OBJECT_NAME":"STARLINK-1007","MEAN_ANOMALY":"293.0487","INCLINATION":"53.0557"},{"EPOCH":"2022-06-28T21:03:02.788704","ECCENTRICITY":"0.00018830","PERIAPSIS":"545.930","REF_FRAME":"TEME","EPHEMERIS_TYPE":"0","MEAN_ELEMENT_THEORY":"SGP4","MEAN_MOTION":"15.06393250","TIME_SYSTEM":"UTC","ELEMENT_SET_NO":"999","SITE":"AFETR","RA_OF_ASC_NODE":"126.1715","MEAN_MOTION_DOT":"0.00000087","ARG_OF_PERICENTER":"63.0167","OBJECT_ID":"2019-074B","FILE":"3504942","MEAN_MOTION_DDOT":"0.0000000000000","CLASSIFICATION_TYPE":"U","CENTER_NAME":"EARTH","APOAPSIS":"548.538","REV_AT_EPOCH":"14530","PERIOD":"95.593","BSTAR":"0.00002476200000","NORAD_CAT_ID":"44714","DECAY_DATE":null,"COUNTRY_CODE":"US","OBJECT_NAME":"STARLINK-1008","RCS_SIZE":"LARGE","MEAN_ANOMALY":"297.1015","OBJECT_TYPE":"PAYLOAD","TLE_LINE1":"1 44714U 19074B   22179.87711561  .00000087  00000-0  24762-4 0  9998","LAUNCH_DATE":"2019-11-11","TLE_LINE2":"2 44714  53.0536 126.1715 0001883  63.0167 297.1015 15.06393250145302","SEMIMAJOR_AXIS":"6925.369","GP_ID":"207057001","INCLINATION":"53.0536"},{"PERIAPSIS":"546.101","REF_FRAME":"TEME","EPHEMERIS_TYPE":"0","MEAN_MOTION":"15.06395632","MEAN_ELEMENT_THEORY":"SGP4","EPOCH":"2022-06-28T20:47:07.857024","ECCENTRICITY":"0.00016260","ARG_OF_PERICENTER":"80.3090","FILE":"3504942","OBJECT_ID":"2019-074C","CLASSIFICATION_TYPE":"U","CENTER_NAME":"EARTH","MEAN_MOTION_DDOT":"0.0000000000000","TIME_SYSTEM":"UTC","ELEMENT_SET_NO":"999","MEAN_MOTION_DOT":"-0.00000152","SITE":"AFETR","RA_OF_ASC_NODE":"126.2228","PERIOD":"95.592","NORAD_CAT_ID":"44715","BSTAR":"0.00000870020000","COUNTRY_CODE":"US","DECAY_DATE":null,"REV_AT_EPOCH":"14546","APOAPSIS":"548.353","INCLINATION":"53.0570","RCS_SIZE":"LARGE","OBJECT_NAME":"STARLINK-1009","MEAN_ANOMALY":"279.8083","LAUNCH_DATE":"2019-11-11","TLE_LINE1":"1 44715U 19074C   22179.86606316 -.00000152  00000-0  87002-5 0  9990","OBJECT_TYPE":"PAYLOAD","GP_ID":"207057754","TLE_LINE2":"2 44715  53.0570 126.2228 0001626  80.3090 279.8083 15.06395632145468","SEMIMAJOR_AXIS":"6925.362"},{"REV_AT_EPOCH":"14527","APOAPSIS":"548.315","COUNTRY_CODE":"US","DECAY_DATE":null,"NORAD_CAT_ID":"44716","BSTAR":"-0.00001963200000","PERIOD":"95.593","GP_ID":"207057497","TLE_LINE2":"2 44716  53.0550 126.4399 0001516  69.5746 290.5406 15.06383198145275","SEMIMAJOR_AXIS":"6925.400","LAUNCH_DATE":"2019-11-11","OBJECT_TYPE":"PAYLOAD","TLE_LINE1":"1 44716U 19074D   22179.81815592 -.00000574  00000-0 -19632-4 0  9996","MEAN_ANOMALY":"290.5406","RCS_SIZE":"LARGE","OBJECT_NAME":"STARLINK-1010","INCLINATION":"53.0550","ECCENTRICITY":"0.00015160","EPOCH":"2022-06-28T19:38:08.671488","MEAN_MOTION":"15.06383198","MEAN_ELEMENT_THEORY":"SGP4","EPHEMERIS_TYPE":"0","REF_FRAME":"TEME","PERIAPSIS":"546.215","MEAN_MOTION_DOT":"-0.00000574","SITE":"AFETR","RA_OF_ASC_NODE":"126.4399","ELEMENT_SET_NO":"999","TIME_SYSTEM":"UTC","CLASSIFICATION_TYPE":"U","CENTER_NAME":"EARTH","MEAN_MOTION_DDOT":"0.0000000000000","FILE":"3504942","OBJECT_ID":"2019-074D","ARG_OF_PERICENTER":"69.5746"},{"ARG_OF_PERICENTER":"53.0356","FILE":"3504942","OBJECT_ID":"2019-074E","CLASSIFICATION_TYPE":"U","CENTER_NAME":"EARTH","MEAN_MOTION_DDOT":"0.0000000000000","TIME_SYSTEM":"UTC","ELEMENT_SET_NO":"999","MEAN_MOTION_DOT":"-0.00000186","RA_OF_ASC_NODE":"146.1276","SITE":"AFETR","PERIAPSIS":"545.505","REF_FRAME":"TEME","EPHEMERIS_TYPE":"0","MEAN_ELEMENT_THEORY":"SGP4","MEAN_MOTION":"15.06396030","EPOCH":"2022-06-28T21:11:01.130208","ECCENTRICITY":"0.00024840","INCLINATION":"53.0548","RCS_SIZE":"LARGE","OBJECT_NAME":"STARLINK-1011","MEAN_ANOMALY":"307.0860","LAUNCH_DATE":"2019-11-11","OBJECT_TYPE":"PAYLOAD","TLE_LINE1":"1 44717U 19074E   22179.88265197 -.00000186  00000-0  64074-5 0  9993","GP_ID":"207056754","SEMIMAJOR_AXIS":"6925.361","TLE_LINE2":"2 44717  53.0548 146.1276 0002484  53.0356 307.0860 15.06396030145026","PERIOD":"95.592","NORAD_CAT_ID":"44717","BSTAR":"0.00000640740000","COUNTRY_CODE":"US","DECAY_DATE":null,"REV_AT_EPOCH":"14502","APOAPSIS":"548.946"},{"ECCENTRICITY":"0.00015750","EPOCH":"2022-06-28T14:09:04.076928","REF_FRAME":"TEME","PERIAPSIS":"546.131","MEAN_MOTION":"15.06397446","MEAN_ELEMENT_THEORY":"SGP4","EPHEMERIS_TYPE":"0","ELEMENT_SET_NO":"999","TIME_SYSTEM":"UTC","MEAN_MOTION_DOT":"0.00000317","RA_OF_ASC_NODE":"127.4652","SITE":"AFETR","ARG_OF_PERICENTER":"68.6728","CLASSIFICATION_TYPE":"U","CENTER_NAME":"EARTH","MEAN_MOTION_DDOT":"0.0000000000000","FILE":"3504942","OBJECT_ID":"2019-074F","REV_AT_EPOCH":"14525","APOAPSIS":"548.312","PERIOD":"95.592","COUNTRY_CODE":"US","DECAY_DATE":null,"NORAD_CAT_ID":"44718","BSTAR":"0.00004020600000","MEAN_ANOMALY":"291.4429","RCS_SIZE":"LARGE","OBJECT_NAME":"STARLINK-1012","GP_ID":"207056501","SEMIMAJOR_AXIS":"6925.356","TLE_LINE2":"2 44718  53.0557 127.4652 0001575  68.6728 291.4429 15.06397446145256","LAUNCH_DATE":"2019-11-11","TLE_LINE1":"1 44718U 19074F   22179.58963052  .00000317  00000-0  40206-4 0  9991","OBJECT_TYPE":"PAYLOAD","INCLINATION":"53.0557"},{"REF_FRAME":"TEME","PERIAPSIS":"545.654","EPHEMERIS_TYPE":"0","MEAN_ELEMENT_THEORY":"SGP4","MEAN_MOTION":"15.06397229","EPOCH":"2022-06-28T20:41:49.243200","ECCENTRICITY":"0.00022640","ARG_OF_PERICENTER":"67.4194","OBJECT_ID":"2019-074G","FILE":"3504942","MEAN_MOTION_DDOT":"0.0000000000000","CLASSIFICATION_TYPE":"U","CENTER_NAME":"EARTH","TIME_SYSTEM":"UTC","ELEMENT_SET_NO":"999","SITE":"AFETR","RA_OF_ASC_NODE":"126.2377","MEAN_MOTION_DOT":"-0.00000036","PERIOD":"95.592","BSTAR":"0.00001649200000","NORAD_CAT_ID":"44719","DECAY_DATE":null,"COUNTRY_CODE":"US","APOAPSIS":"548.790","REV_AT_EPOCH":"14546","INCLINATION":"53.0556","OBJECT_NAME":"STARLINK-1013","RCS_SIZE":"LARGE","MEAN_ANOMALY":"292.7034","TLE_LINE1":"1 44719U 19074G   22179.86237550 -.00000036  00000-0  16492-4 0  9999","OBJECT_TYPE":"PAYLOAD","LAUNCH_DATE":"2019-11-11","SEMIMAJOR_AXIS":"6925.357","TLE_LINE2":"2 44719  53.0556 126.2377 0002264  67.4194 292.7034 15.06397229145465","GP_ID":"207057254"}];
